0 SL-8 R/B
1 16511U 86008B   13282.77937087  .00000135  00000-0  12308-3 0  3721
2 16511 082.9435 138.3571 0025502 084.6681 324.4949 13.75729926391146
0 SL-8 R/B
1 16511U 86008B   13287.16139795  .00000159  00000-0  14788-3 0  3741
2 16511 082.9425 135.1078 0025392 073.0493 066.4275 13.75731057391741
0 SL-8 R/B
1 16511U 86008B   13289.53913780  .00000157  00000-0  14624-3 0  3756
2 16511 082.9423 133.3446 0025277 066.7080 322.2002 13.75732421392075
0 SL-8 R/B
1 16511U 86008B   13292.17948553  .00000146  00000-0  13470-3 0  3763
2 16511 082.9423 131.3864 0025197 059.6801 078.5364 13.75733003392439
0 SL-8 R/B
1 16511U 86008B   13294.49136157  .00000138  00000-0  12723-3 0  3771
2 16511 082.9424 129.6720 0025076 053.4711 008.1755 13.75733330392750
